#dP2018 10 21  0  0  0.00000000      96 __u+U ITR00 FIT  IAC
## 2024      0.00000000   900.00000000 58412 0.0000000000000
+   91   C01C02C03C04C05C06C07C08C09C10C11C12C13C14E01E02E03
+        E04E05E07E08E09E11E12E14E18E19E21E24E25E26E27E30G01
+        G02G03G04G05G06G07G08G09G10G11G12G13G14G15G16G17G18
+        G19G20G21G22G23G24G25G26G27G28G29G30G31G32J01J02J03
+        R01R02R03R04R05R07R08R09R10R11R13R14R15R16R17R18R19
+        R20R21R22R23R24R26  0  0  0  0  0  0  0  0  0  0  0
++         0  0  0  0  0  0  0  0  0  0  0  0  0  0  0  0  0
++         0  0  0  0  0  0  0  0  0  0  0  0  0  0  0  0  0
++         0  0  0  0  0  0  0  0  0  0  0  0  0  0  0  0  0
++         0  0  0  0  0  0  0  0  0  0  0  0  0  0  0  0  0
++         0  0  0  0  0  0  0  0  0  0  0  0  0  0  0  0  0
++         0  0  0  0  0  0  0  0  0  0  0  0  0  0  0  0  0
%c M  cc GPS ccc cccc cccc cccc cccc ccccc ccccc ccccc ccccc
%c cc cc ccc ccc cccc cccc cccc cccc ccccc ccccc ccccc ccccc
%f  0.0000000  0.000000000  0.00000000000  0.000000000000000
%f  0.0000000  0.000000000  0.00000000000  0.000000000000000
%i    0    0    0    0      0      0      0      0         0
%i    0    0    0    0      0      0      0      0         0
/*                                                          
/*   RSA / INFORMATION & ANALYSIS CENTER (IAC) OF MCC       
/*   ULTRA-RAPID DETERMINATION                              
/* PCV:IGS14_2022 OL/AL:FES2004  NONE     YN ORB:CoN CLK:CoN
*  2018 10 21  2 45  0.00000000
PC01 -32306.319927  27065.347316   -372.246036   -215.707716
PC02   4449.277415  41930.676842    929.779521    -40.616464
PC03 -14839.019013  39495.973073     46.143886   -232.432895
PC04 -39619.637181  14337.370242    -98.152581     73.774587
PC05  21922.230504  36012.430373   1073.953552    210.534559
PC06 -20727.655050  36913.884390   1295.076005    399.634934
PC07  -8103.108860  28364.718050 -29828.621690   -103.735116
PC08 -21720.636901  19697.770196  30249.575860      4.592571
PC09  -9581.344131  38125.376479 -15510.765774    215.813149
PC10   5017.558885  35544.117132 -21667.160020   -170.821816
PC11  -9567.234820 -12076.434982 -23206.307853     -4.731200
PC12  10090.016313 -19959.506959 -16695.138071    162.722195
PC13  -3216.754855  23567.687496  34812.946772   -336.082412
PC14  -9434.356186 -23817.611456  11057.595055    647.992949
PE01  22038.151199  18979.652447   5489.379940   -460.515485
PE02 -22043.363312 -18968.722850  -5505.109717     31.978790
PE03 -13009.215427 -13129.188803  23122.097604    -90.574635
PE04  18691.498293  -8630.814721 -21266.752060   -141.950936
PE05    322.444748 -27299.616939  11439.112280    173.423257
PE07 -13426.744228  25455.958699   6903.223528    -60.330251
PE08 -18491.091255   8871.563222  21339.584813   6478.927873
PE09  13162.224540 -25599.190316  -6932.979437   6641.757825
PE11  18506.587258 -15757.397654 -16894.607951   5698.706691
PE12  29012.990736  -5730.321757   1168.487779   5317.985964
PE14 -25590.021848   6363.233912 -17072.000353   6501.632674
PE18  20181.892807 -14947.956313   4563.728079   5817.252421
PE19  11858.364807  14981.688922 -22608.243563    -11.262627
PE21  10028.667241  24288.579474 -13611.004408   -500.500368
PE24   7312.219188 -15594.346357  24069.943190   6431.021886
PE25 -10000.680767 -24297.814351  13652.542192   2007.250976
PE26   2429.917616  16403.501718  24518.602061   5341.293104
PE27  -7772.274484  15090.297127 -24237.331155    606.921485
PE30 -20758.128489  -2429.532018 -20959.429276   5416.215476
PG01 -17772.713714 -13532.191869 -14763.739603   -103.190808
PG02  -4424.076590  15182.030726  21902.219458    -35.879509
PG03 -13588.496982 -21406.936759   7986.562500    151.349646
PG04  12524.057304 -22819.712815  -3702.769863      6.316609
PG05   1670.796007  24374.760243  10040.831549     -0.801749
PG06 -19655.541099   7705.314750  16158.402158    346.492845
PG07 -26063.841495  -6181.917557   1439.715178    103.071809
PG08    557.299049 -19709.514006 -17669.320034   -119.343586
PG09 -16696.275761  -2588.166481  20456.315548    498.942453
PG10  14028.889793  -5822.073471 -21744.476963    172.720373
PG11 -12598.613614 -12898.258024 -20000.789465   -707.956318
PG12   9726.478153  24477.643080   3911.366025    298.243213
PG13  -9102.755769  21067.344865 -13462.352568    -86.573737
PG14  18627.386120 -18792.782976    -41.044975    -96.551554
PG15   5147.793519  17675.359444 -19247.952119   -342.432573
PG16   1872.872871 -23407.341642  11830.022786      3.160336
PG17 -20849.682270  13167.596656  -9304.622282    -41.594213
PG18  -8335.214112 -15697.835884 -20259.246557     70.496769
PG19 -19298.467959  18344.578227   -410.823597   -391.583920
PG20  18022.127977   3992.750071 -19258.574729    517.580415
PG21  26334.522787   2577.741444  -1018.276697   -317.900630
PG22 -10891.858477 -24243.269107    469.333308   -552.410188
PG23 -11043.094633 -11267.769500  21649.104168   -208.214454
PG24  13778.231950  14753.108839 -17538.545531    -57.023795
PG25  15941.357247  15658.265763  14354.512759   -664.813420
PG26   7791.675215 -16975.952755  18822.742117     15.488391
PG27   9986.397144 -22363.325947 -10018.722393     -7.669499
PG28 -14230.025993   2483.988025 -21664.644867    750.762268
PG29  15344.576057   4334.857672  21218.332356    352.805325
PG30 -24847.675172   1357.393610  -9504.103760      7.194627
PG31  18111.584807  -8721.640487  17602.268774     85.311347
PG32  20219.875682 -14815.970995  -8596.717958   -385.955774
PJ01 -24302.444878  28318.791842  24630.408169   -305.857919
PJ02 -25099.367040  15692.152432 -25698.980678      0.297786
PJ03 -26649.187268  32428.591660   -273.347185      0.373673
PR01 -10973.290643  -1763.485625  22955.927517     33.764231
PR02  -9359.165461  18629.238678  14766.741854    335.506516
PR03  -2130.818764  25361.151961  -1998.497819    146.522147
PR04   6561.166043  16915.311009 -17927.681987    280.694294
PR05  10962.642105   -595.848701 -23019.028502     13.601955
PR07   1872.112931 -25293.461057   2566.780818    -49.785591
PR08  -6279.420543 -17467.290519  17539.678075     20.842453
PR09   9123.725316  -6936.453375  22802.054089     34.504602
PR10  -6302.407908 -15919.484010  18930.730668     33.910712
PR11 -19048.815332 -16642.581504   3508.821954    -44.545369
PR13  -9512.874101   6311.273084 -22821.076643    -15.925392
PR14   6151.132664  15973.422720 -18886.142351     32.188105
PR15  16786.482772  17554.970834  -7933.141548    -18.013535
PR16  20809.163451   7761.538227  12631.745736    104.438546
PR17  -7313.423265  13291.602397  20498.923955    173.902522
PR18  10086.531193   6833.490307  22413.877086     26.364648
PR19  22322.674569  -3017.573629  11977.270220    -60.855862
PR20  21501.675131 -11805.696054  -6921.764311   -356.305926
PR21   6947.586228 -13162.895088 -20726.588114    -10.019596
PR22 -12336.398185  -5494.004872 -21664.464584    -64.921420
PR23 -23521.727877   5896.564752  -7912.036775    185.650989
PR24 -20674.064373  12544.063335   8099.863524   -172.813043
PR26  21978.204127 -11801.225912  -5390.112712     25.512958
EOF
